H1 CPF 01  gfz 2021 10 26 00  7991 terrasarx 
H2 0702601  6201 31698    2021 10 26 00 59 42 2021 10 31 00 00 42   120 1 1  0 0 0
H9
10 0 59515  79182.000000  0     606383.970  -2662053.278   6314126.283
10 0 59515  79302.000000  0     118506.896  -1935430.157   6599553.071
10 0 59515  79422.000000  0    -358349.837  -1166595.266   6769016.773
10 0 59515  79542.000000  0    -815249.033   -369237.774   6819558.748
10 0 59515  79662.000000  0   -1243847.816    442309.550   6750296.557
10 0 59515  79782.000000  0   -1636549.440   1253327.588   6562438.057
10 0 59515  79902.000000  0   -1986637.664   2048976.816   6259261.523
10 0 59515  80022.000000  0   -2288392.342   2814568.234   5846062.143
10 0 59515  80142.000000  0   -2537183.694   3535835.417   5330064.901
10 0 59515  80262.000000  0   -2729544.845   4199203.056   4720305.307
10 0 59515  80382.000000  0   -2863221.212   4792048.044   4027477.134
10 0 59515  80502.000000  0   -2937194.561   5302947.030   3263748.800
10 0 59515  80622.000000  0   -2951681.173   5721904.585   2442550.461
10 0 59515  80742.000000  0   -2908104.302   6040556.025   1578336.279
10 0 59515  80862.000000  0   -2809041.283   6252340.729    686326.008
10 0 59515  80982.000000  0   -2658146.059   6352641.656   -217769.414
10 0 59515  81102.000000  0   -2460049.746   6338886.913  -1118033.169
10 0 59515  81222.000000  0   -2220241.296   6210610.054  -1998633.901
10 0 59515  81342.000000  0   -1944929.208   5969463.728  -2844114.196
10 0 59515  81462.000000  0   -1640890.618   5619191.259  -3639665.148
10 0 59515  81582.000000  0   -1315312.853   5165559.276  -4371386.894
10 0 59515  81702.000000  0    -975630.273   4616250.805  -5026529.050
10 0 59515  81822.000000  0    -629360.607   3980724.741  -5593706.675
10 0 59515  81942.000000  0    -283943.675   3270043.728  -6063090.672
10 0 59515  82062.000000  0      53413.959   2496673.267  -6426568.132
10 0 59515  82182.000000  0     375884.236   1674258.661  -6677870.205
10 0 59515  82302.000000  0     677150.790    817384.747  -6812670.456
10 0 59515  82422.000000  0     951528.769    -58680.039  -6828651.520
10 0 59515  82542.000000  0    1194068.772   -938250.963  -6725540.255
10 0 59515  82662.000000  0    1400643.444  -1805501.093  -6505110.252
10 0 59515  82782.000000  0    1568016.273  -2644737.995  -6171154.710
10 0 59515  82902.000000  0    1693892.459  -3440681.779  -5729429.752
10 0 59515  83022.000000  0    1776949.607  -4178742.637  -5187566.176
10 0 59515  83142.000000  0    1816848.280  -4845289.669  -4554947.011
10 0 59515  83262.000000  0    1814222.475  -5427905.702  -3842556.077
10 0 59515  83382.000000  0    1770649.381  -5915627.123  -3062797.594
10 0 59515  83502.000000  0    1688597.917  -6299161.082  -2229286.799
10 0 59515  83622.000000  0    1571358.319  -6571073.814  -1356614.677
10 0 59515  83742.000000  0    1422953.602  -6725945.762   -460092.213
10 0 59515  83862.000000  0    1248034.365  -6760489.901    444523.401
10 0 59515  83982.000000  0    1051760.474  -6673626.128   1341312.399
10 0 59515  84102.000000  0     839670.759  -6466513.842   2214481.638
10 0 59515  84222.000000  0     617546.413  -6142536.999   3048653.018
10 0 59515  84342.000000  0     391268.868  -5707243.564   3829142.007
10 0 59515  84462.000000  0     166677.346  -5168242.980   4542220.418
10 0 59515  84582.000000  0     -50569.840  -4535064.284   5175360.363
10 0 59515  84702.000000  0    -255127.416  -3818977.356   5717453.783
10 0 59515  84822.000000  0    -442085.047  -3032782.467   6159004.845
10 0 59515  84942.000000  0    -607077.286  -2190572.190   6492289.962
10 0 59515  85062.000000  0    -746379.186  -1307474.546   6711485.105
10 0 59515  85182.000000  0    -856985.761   -399379.633   6812762.695
10 0 59515  85302.000000  0    -936674.516    517347.490   6794355.190
10 0 59515  85422.000000  0    -984049.190   1426161.658   6656583.844
10 0 59515  85542.000000  0    -998563.764   2310635.521   6401853.224
10 0 59515  85662.000000  0    -980527.259   3154756.006   6034611.938
10 0 59515  85782.000000  0    -931089.475   3943215.456   5561279.833
10 0 59515  85902.000000  0    -852206.927   4661692.222   4990141.251
10 0 59515  86022.000000  0    -746590.544   5297116.777   4331206.789
10 0 59515  86142.000000  0    -617635.337   5837917.960   3596041.462
10 0 59515  86262.000000  0    -469333.685   6274241.452   2797566.073
10 0 59515  86382.000000  0    -306175.326   6598143.001   1949830.792
10 0 59516    102.000000  0    -133032.772   6803741.904   1067761.966
10 0 59516    222.000000  0      44962.778   6887333.978    166893.709
10 0 59516    342.000000  0     222551.840   6847462.609   -736913.250
10 0 59516    462.000000  0     394480.781   6684943.977  -1627760.785
10 0 59516    582.000000  0     555633.943   6402844.647  -2490001.400
10 0 59516    702.000000  0     701161.755   6006415.607  -3308518.637
10 0 59516    822.000000  0     826602.652   5502984.404  -4068995.373
10 0 59516    942.000000  0     927995.174   4901807.585  -4758164.422
10 0 59516   1062.000000  0    1001977.774   4213888.030  -5364036.123
10 0 59516   1182.000000  0    1045874.032   3451762.801  -5876099.394
10 0 59516   1302.000000  0    1057761.131   2629266.459  -6285494.777
10 0 59516   1422.000000  0    1036521.119   1761274.519  -6585155.960
10 0 59516   1542.000000  0     981873.904    863434.501  -6769920.301
10 0 59516   1662.000000  0     894391.682    -48113.302  -6836609.315
10 0 59516   1782.000000  0     775494.959   -957021.148  -6784077.131
10 0 59516   1902.000000  0     627429.421  -1847020.203  -6613226.402
10 0 59516   2022.000000  0     453225.324  -2702202.928  -6326994.196
10 0 59516   2142.000000  0     256638.827  -3507301.975  -5930309.580
10 0 59516   2262.000000  0      42075.714  -4247961.224  -5430016.928
10 0 59516   2382.000000  0    -185499.790  -4910991.978  -4834768.372
10 0 59516   2502.000000  0    -420671.346  -5484612.663  -4154885.962
10 0 59516   2622.000000  0    -657689.905  -5958666.907  -3402192.945
10 0 59516   2742.000000  0    -890603.572  -6324814.251  -2589815.877
10 0 59516   2862.000000  0   -1113395.487  -6576689.539  -1731960.887
10 0 59516   2982.000000  0   -1320126.395  -6710026.888   -843665.694
10 0 59516   3102.000000  0   -1505078.247  -6722742.753     59467.574
10 0 59516   3222.000000  0   -1662895.497  -6614975.886    961552.587
10 0 59516   3342.000000  0   -1788720.690  -6389082.991   1846706.416
10 0 59516   3462.000000  0   -1878320.285  -6049589.389   2699338.535
10 0 59516   3582.000000  0   -1928197.145  -5603095.281   3504434.255
10 0 59516   3702.000000  0   -1935686.722  -5058140.706   4247825.575
10 0 59516   3822.000000  0   -1899034.571  -4425033.708   4916443.696
10 0 59516   3942.000000  0   -1817454.698  -3715646.909   5498549.535
10 0 59516   4062.000000  0   -1691166.667  -2943184.987   5983938.835
10 0 59516   4182.000000  0   -1521409.581  -2121930.250   6364115.515
10 0 59516   4302.000000  0   -1310434.211  -1266974.114   6632433.855
10 0 59516   4422.000000  0   -1061474.500   -393936.565   6784209.140
10 0 59516   4542.000000  0    -778698.723    481320.471   6816793.367
10 0 59516   4662.000000  0    -467139.835   1342980.261   6729618.968
10 0 59516   4782.000000  0    -132605.723   2175556.751   6524208.377
10 0 59516   4902.000000  0     218428.783   2964172.615   6204148.829
10 0 59516   5022.000000  0     578945.844   3694825.337   5775033.604
10 0 59516   5142.000000  0     941522.689   4354638.831   5244369.945
10 0 59516   5262.000000  0    1298482.163   4932095.263   4621453.755
10 0 59516   5382.000000  0    1642052.666   5417243.227   3917211.608
10 0 59516   5502.000000  0    1964534.242   5801877.079   3144014.754
10 0 59516   5622.000000  0    2258469.225   6079686.875   2315463.190
10 0 59516   5742.000000  0    2516809.582   6246370.412   1446142.702
10 0 59516   5862.000000  0    2733079.723   6299704.937    551361.916
10 0 59516   5982.000000  0    2901528.069   6239575.932   -353124.632
10 0 59516   6102.000000  0    3017265.819   6067964.812  -1251401.670
10 0 59516   6222.000000  0    3076388.841   5788894.095  -2127681.341
10 0 59516   6342.000000  0    3076079.306   5408332.592  -2966587.718
10 0 59516   6462.000000  0    3014684.734   4934061.987  -3753432.349
10 0 59516   6582.000000  0    2891771.733   4375508.505  -4474472.970
10 0 59516   6702.000000  0    2708154.167   3743546.703  -5117150.920
10 0 59516   6822.000000  0    2465895.934   3050279.609  -5670303.724
10 0 59516   6942.000000  0    2168289.391   2308800.600  -6124350.427
10 0 59516   7062.000000  0    1819808.798   1532941.993  -6471446.560
10 0 59516   7182.000000  0    1426041.776    737016.737  -6705607.500
10 0 59516   7302.000000  0     993599.835    -64442.524  -6822802.044
10 0 59516   7422.000000  0     530007.280   -856944.318  -6821014.885
10 0 59516   7542.000000  0      43572.189  -1626294.500  -6700275.809
10 0 59516   7662.000000  0    -456758.112  -2358842.832  -6462658.888
10 0 59516   7782.000000  0    -961557.394  -3041720.193  -6112252.588
10 0 59516   7902.000000  0   -1461093.682  -3663062.546  -5655096.281
10 0 59516   8022.000000  0   -1945512.133  -4212216.609  -5099086.629
10 0 59516   8142.000000  0   -2405026.393  -4679926.834  -4453853.564
10 0 59516   8262.000000  0   -2830115.121  -5058498.710  -3730604.049
10 0 59516   8382.000000  0   -3211718.625  -5341933.571  -2941936.006
10 0 59516   8502.000000  0   -3541431.814  -5526033.054  -2101625.377
10 0 59516   8622.000000  0   -3811689.676  -5608470.108  -1224388.252
10 0 59516   8742.000000  0   -4015939.822  -5588823.707   -325621.427
10 0 59516   8862.000000  0   -4148796.849  -5468575.354    578873.205
10 0 59516   8982.000000  0   -4206174.861  -5251067.145   1473174.305
10 0 59516   9102.000000  0   -4185394.297  -4941421.406   2341531.009
10 0 59516   9222.000000  0   -4085259.622  -4546423.832   3168649.107
99
